{"generatedAt":"2026-05-05T08:19:47.084492Z","satellites":[{"name":"STARLINK-37543","tle1":"1 68911U 26097S   26124.75002315 -.02089975  12952-2 -41814-2 0  9990","tle2":"2 68911  97.2864 319.6806 0001345  94.5586 150.0099 15.99951365  1947"}]}