{
  "norad_id": 68911,
  "name": "STARLINK-37543",
  "history": [
    {
      "epoch": "2026-05-04T18:00:02.000160Z",
      "apogee_km": 275.4483028862833,
      "perigee_km": 273.65872913747626,
      "latitude_deg": -63.82173238941769,
      "longitude_deg": -7.951289472257712,
      "height_km": 299.7797049656285,
      "semi_major_axis_km": 6652.6905160118795,
      "eccentricity": 0.0001345,
      "inclination_deg": 97.2864,
      "raan_deg": 319.6806,
      "arg_perigee_deg": 94.5586,
      "mean_anomaly_deg": 150.0099,
      "mean_motion_rev_day": 15.99951365
    }
  ]
}